IRIDIUM 33              
1 24946U 97051C   26196.87866541  .00000119  00000+0  34871-4 0  9993
2 24946  86.3895 337.9122 0006322 219.9806 140.0926 14.35159307509207
IRIDIUM 33 DEB          
1 33773U 97051L   26197.30051660  .00000437  00000+0  12260-3 0  9998
2 33773  86.4034 329.2260 0012258 150.9395 209.2491 14.43692817914572
IRIDIUM 33 DEB          
1 33775U 97051N   26197.26521325  .00000666  00000+0  19640-3 0  9998
2 33775  86.3648 317.5075 0013989 161.7717 219.9092 14.42093081912466
IRIDIUM 33 DEB          
1 33776U 97051P   26196.91032036  .00000337  00000+0  10354-3 0  9994
2 33776  86.4057 350.3789 0013565 203.1889 276.7711 14.38571670911750
IRIDIUM 33 DEB          
1 33777U 97051Q   26196.81871900  .00001821  00000+0  40027-3 0  9994
2 33777  86.3795 301.5454 0004937 239.5615 120.5106 14.57043198916646
IRIDIUM 33 DEB          
1 33850U 97051T   26197.23615333  .00000567  00000+0  16405-3 0  9998
2 33850  86.3416 297.4863 0012403 167.9066 220.4946 14.42742669912591
IRIDIUM 33 DEB          
1 33853U 97051W   26197.11065418  .00000548  00000+0  30252-3 0  9996
2 33853  85.9968 255.2898 0205742 295.7910  89.0488 13.99888927883584
IRIDIUM 33 DEB          
1 33860U 97051AD  26197.22283155  .00002652  00000+0  43324-3 0  9998
2 33860  86.3818 291.5857 0005928 326.6574  62.9114 14.70533467918865
IRIDIUM 33 DEB          
1 33862U 97051AF  26197.27313470  .00002166  00000+0  32111-3 0  9991
2 33862  86.4095 302.1155 0048834  43.2710 346.5555 14.73797454919943
IRIDIUM 33 DEB          
1 33866U 97051AK  26196.95214234  .00001946  00000+0  74844-3 0  9991
2 33866  86.3019   1.8853 0112963 188.8880 292.7565 14.26479220898775
IRIDIUM 33 DEB          
1 33870U 97051AP  26197.31350168  .00001052  00000+0  28376-3 0  9991
2 33870  86.3766 325.7861 0020849 180.2307 208.0878 14.46903164912536
IRIDIUM 33 DEB          
1 33881U 97051BA  26196.92963793  .00006941  00000+0  13389-2 0  9992
2 33881  86.3848  12.7023 0055021 164.1919 349.6484 14.62383740906394
IRIDIUM 33 DEB          
1 33884U 97051BD  26197.23542687  .00004806  00000+0  58090-3 0  9992
2 33884  86.3655 272.0105 0008017 263.7988 150.3302 14.83517530920368
IRIDIUM 33 DEB          
1 33886U 97051BF  26197.29855271  .00000220  00000+0  68531-4 0  9994
2 33886  86.3855 336.4885 0011858 259.3068 116.1854 14.36281050911465
IRIDIUM 33 DEB          
1 33887U 97051BG  26197.21022935  .00000191  00000+0  57328-4 0  9999
2 33887  86.3029 270.5340 0004132 246.2255 140.3851 14.37414170912608
IRIDIUM 33 DEB          
1 33953U 97051BN  26197.29404245  .00001498  00000+0  32572-3 0  9993
2 33953  86.3866 320.0832 0018480  94.9008 293.0674 14.57298394914413
IRIDIUM 33 DEB          
1 33960U 97051BV  26196.99245023  .00007309  00000+0  66952-3 0  9990
2 33960  86.2562 187.1436 0004651  78.7714 335.8014 14.94790292920745
IRIDIUM 33 DEB          
1 33966U 97051CB  26197.32204155  .00000779  00000+0  19419-3 0  9995
2 33966  86.3937 313.4601 0007331 185.1887 202.5623 14.50455530915664
IRIDIUM 33 DEB          
1 34071U 97051CE  26197.17282270  .00000867  00000+0  21656-3 0  9994
2 34071  86.3440 284.1117 0009909 108.0223 252.2063 14.50459057914564
IRIDIUM 33 DEB          
1 34077U 97051CL  26197.27102479  .00003314  00000+0  56947-3 0  9994
2 34077  86.3866 316.2729 0008595  21.2197   3.0286 14.68365997914921
IRIDIUM 33 DEB          
1 34079U 97051CN  26197.27252434  .00005865  00000+0  60102-3 0  9994
2 34079  86.3721 270.0099 0003331 293.9362 149.4876 14.90311261921811
IRIDIUM 33 DEB          
1 34088U 97051CX  26197.24466561  .00016523  00000+0  11306-2 0  9993
2 34088  86.3773 290.4593 0005812 151.9360 237.6972 15.05994616919700
IRIDIUM 33 DEB          
1 34091U 97051DA  26197.09863449  .00015963  00000+0  13967-2 0  9998
2 34091  86.3479 326.9649 0026395 241.2544 118.6034 14.96363942910743
IRIDIUM 33 DEB          
1 34097U 97051DG  26197.17133127  .00000422  00000+0  13274-3 0  9992
2 34097  86.1968 266.1646 0080552  19.4982 340.9264 14.36248826902101
IRIDIUM 33 DEB          
1 34145U 97051DY  26197.10675605  .00001223  00000+0  34739-3 0  9990
2 34145  86.2089 236.4526 0054304 102.9476 257.7797 14.43764250907449
IRIDIUM 33 DEB          
1 34146U 97051DZ  26197.17038547  .00001071  00000+0  26850-3 0  9992
2 34146  86.2802 254.5107 0024768 222.7039 191.4174 14.50303824912281
IRIDIUM 33 DEB          
1 34159U 97051EN  26196.77428628  .00000483  00000+0  14980-3 0  9991
2 34159  86.3527 316.5392 0025658 303.1901  56.6837 14.38999369910519
IRIDIUM 33 DEB          
1 34350U 97051ES  26197.19805478  .00000409  00000+0  10901-3 0  9990
2 34350  86.3256 269.2708 0022678 139.8169 248.5157 14.45931456914067
IRIDIUM 33 DEB          
1 34366U 97051FJ  26197.32600359  .00002230  00000+0  50051-3 0  9997
2 34366  86.3703 315.3875 0021934 132.3648 255.8977 14.56006052913172
IRIDIUM 33 DEB          
1 34375U 97051FT  26197.18687704  .00000410  00000+0  17990-3 0  9993
2 34375  86.4285  95.8268 0101650 161.0617 351.1482 14.18375152897656
IRIDIUM 33 DEB          
1 34376U 97051FU  26197.15329464  .00003928  00000+0  70214-3 0  9992
2 34376  86.2932 269.3185 0026245 152.5704 207.6902 14.66451494911609
IRIDIUM 33 DEB          
1 34486U 97051GB  26197.22888641  .00015891  00000+0  98528-3 0  9999
2 34486  86.3770 271.3085 0006517  84.5502 329.3218 15.09625689922234
IRIDIUM 33 DEB          
1 34487U 97051GC  26196.55596149  .00000313  00000+0  86059-4 0  9994
2 34487  86.3425 279.8788 0032519 137.2479 288.6717 14.43517285913471
IRIDIUM 33 DEB          
1 34492U 97051GH  26197.10300946  .00003488  00000+0  11513-2 0  9997
2 34492  86.4669 247.2565 0175071 263.2804 123.7358 14.29502677881324
IRIDIUM 33 DEB          
1 34497U 97051GN  26196.29907094  .00000529  00000+0  19826-3 0  9997
2 34497  86.2800 320.7077 0079012   8.2894  19.8954 14.28155529899452
IRIDIUM 33 DEB          
1 34508U 97051GZ  26197.00210305  .00001442  00000+0  44278-3 0  9996
2 34508  86.3711  11.2307 0063766 183.9981 176.0718 14.39817738904058
IRIDIUM 33 DEB          
1 34521U 97051HN  26197.23961650  .00002345  00000+0  42373-3 0  9999
2 34521  86.3790 295.4483 0002028 207.6904 152.4202 14.66050010916279
IRIDIUM 33 DEB          
1 34525U 97051HS  26197.31622073  .00000524  00000+0  14928-3 0  9997
2 34525  86.3746 314.8090 0006735  99.4495 289.5022 14.43425927911977
IRIDIUM 33 DEB          
1 34529U 97051HW  26197.27928868  .00000343  00000+0  10078-3 0  9998
2 34529  86.3650 303.5276 0004476 185.7403 174.3746 14.40887115912450
IRIDIUM 33 DEB          
1 34538U 97051JF  26196.17191950  .00000731  00000+0  20793-3 0  9996
2 34538  86.2744 271.5305 0032530 338.8029  49.7867 14.43767762908493
IRIDIUM 33 DEB          
1 34540U 97051JH  26196.80722604  .00004342  00000+0  57448-3 0  9994
2 34540  86.3081 208.8932 0017156 132.3842 349.3958 14.79633998921977
IRIDIUM 33 DEB          
1 34648U 97051JZ  26196.95220874  .00002311  00000+0  10347-2 0  9991
2 34648  86.3974 194.8392 0168691 340.8493  18.6398 14.14947954880012
IRIDIUM 33 DEB          
1 34651U 97051KC  26194.36037799  .00002814  00000+0  10167-2 0  9998
2 34651  86.2785  49.7822 0129139 239.0259 119.8195 14.28718299889295
IRIDIUM 33 DEB          
1 34652U 97051KD  26196.09271187  .00001525  00000+0  28663-3 0  9991
2 34652  86.3279 244.3928 0024605 284.3978 103.8141 14.63828930916184
IRIDIUM 33 DEB          
1 34690U 97051KM  26197.29231291  .00001980  00000+0  44425-3 0  9997
2 34690  86.3790 303.2500 0009432  22.5811   5.8295 14.56117370912306
IRIDIUM 33 DEB          
1 34696U 97051KT  26196.23987773  .00018551  00000+0  24151-2 0  9994
2 34696  86.1776 286.4432 0059702 147.4092 242.2986 14.79261771898300
IRIDIUM 33 DEB          
1 34765U 97051LJ  26197.27360800  .00000545  00000+0  16322-3 0  9998
2 34765  86.3397 300.2478 0014976 221.4148 167.5978 14.41014312907174
IRIDIUM 33 DEB          
1 34833U 97051MH  26197.28449640  .00001279  00000+0  29956-3 0  9997
2 34833  86.3946 318.0126 0021493  93.9400 293.3374 14.53687609908450
IRIDIUM 33 DEB          
1 34870U 97051MQ  26197.01026900  .00003759  00000+0  48674-3 0  9992
2 34870  86.3089 215.1205 0017244 152.4843 236.4122 14.80494151920928
IRIDIUM 33 DEB          
1 34896U 97051MY  26196.87587235  .00001646  00000+0  28029-3 0  9991
2 34896  86.3265 230.0131 0024774 193.6348 286.6916 14.68257291907740
IRIDIUM 33 DEB          
1 34926U 97051NF  26196.92588816  .00004397  00000+0  83045-3 0  9992
2 34926  86.1296 267.6919 0066526 284.9723 140.5196 14.62817153895958
IRIDIUM 33 DEB          
1 34985U 97051NR  26196.80607257  .00000878  00000+0  25648-3 0  9990
2 34985  86.3716 325.0812 0019641 229.9278 283.0739 14.42880210902758
IRIDIUM 33 DEB          
1 35051U 97051NX  26193.53521377  .00000969  00000+0  25261-3 0  9992
2 35051  86.3225 276.4686 0010735 103.7119 256.5281 14.48554640900615
IRIDIUM 33 DEB          
1 35052U 97051NY  26196.01707781  .00000269  00000+0  81084-4 0  9993
2 35052  86.3308 288.6083 0013715  99.3995 260.8755 14.38749987903567
IRIDIUM 33 DEB          
1 35297U 97051PM  26195.13376357  .00000987  00000+0  27088-3 0  9997
2 35297  86.3882 331.6306 0017087 149.7861 210.4331 14.46049513735099
IRIDIUM 33 DEB          
1 35299U 97051PP  26197.25214438  .00001938  00000+0  56636-3 0  9993
2 35299  86.2884 299.2293 0057343 111.4838 278.4439 14.42599702894360
IRIDIUM 33 DEB          
1 35480U 97051QA  26195.54521996  .00000966  00000+0  23990-3 0  9992
2 35480  86.3556 292.1453 0016066 109.6476 250.6465 14.50760323901305
IRIDIUM 33 DEB          
1 35484U 97051QE  26187.93814412  .00035409  00000+0  17316-2 0  9992
2 35484  86.3413 254.5480 0014890 101.7984 258.4929 15.17967349651240
IRIDIUM 33 DEB          
1 35488U 97051QJ  26196.01035451  .00004213  00000+0  45859-3 0  9996
2 35488  86.3239 201.7021 0024333   7.7799 352.3798 14.87578656914477
IRIDIUM 33 DEB          
1 35616U 97051QN  26191.14895867  .00007078  00000+0  77544-3 0  9991
2 35616  86.3498 249.6601 0010680 150.3518 209.8315 14.87591738906823
